let sat = [{"OBJECT_NAME":"ONEWEB-0010","OBJECT_ID":"2019-010B","EPOCH":"2022-09-07T18:27:38.869632","MEAN_MOTION":13.16596987,"ECCENTRICITY":0.0002088,"INCLINATION":87.9132,"RA_OF_ASC_NODE":143.1827,"ARG_OF_PERICENTER":61.0549,"MEAN_ANOMALY":299.0791,"EPHEMERIS_TYPE":0,"CLASSIFICATION_TYPE":"U","NORAD_CAT_ID":44058,"ELEMENT_SET_NO":999,"REV_AT_EPOCH":17023,"BSTAR":0.00019939,"MEAN_MOTION_DOT":8.9e-7,"MEAN_MOTION_DDOT":0},{"OBJECT_NAME":"ONEWEB-0008","OBJECT_ID":"2019-010C","EPOCH":"2022-09-07T17:14:37.165344","MEAN_MOTION":13.16591313,"ECCENTRICITY":0.0001935,"INCLINATION":87.9136,"RA_OF_ASC_NODE":143.2313,"ARG_OF_PERICENTER":88.9312,"MEAN_ANOMALY":271.2041,"EPHEMERIS_TYPE":0,"CLASSIFICATION_TYPE":"U","NORAD_CAT_ID":44059,"ELEMENT_SET_NO":999,"REV_AT_EPOCH":17034,"BSTAR":-5.5625e-5,"MEAN_MOTION_DOT":-8.0e-8,"MEAN_MOTION_DDOT":0},{"OBJECT_NAME":"ONEWEB-0007","OBJECT_ID":"2019-010D","EPOCH":"2022-09-07T17:22:03.214848","MEAN_MOTION":13.15548708,"ECCENTRICITY":0.0002445,"INCLINATION":87.9156,"RA_OF_ASC_NODE":173.4354,"ARG_OF_PERICENTER":75.7126,"MEAN_ANOMALY":284.4276,"EPHEMERIS_TYPE":0,"CLASSIFICATION_TYPE":"U","NORAD_CAT_ID":44060,"ELEMENT_SET_NO":999,"REV_AT_EPOCH":17013,"BSTAR":-2.8683e-5,"MEAN_MOTION_DOT":2.0e-8,"MEAN_MOTION_DDOT":0},{"OBJECT_NAME":"ONEWEB-0006","OBJECT_ID":"2019-010E","EPOCH":"2022-09-07T17:03:48.189888","MEAN_MOTION":13.15549098,"ECCENTRICITY":0.0002229,"INCLINATION":87.9192,"RA_OF_ASC_NODE":173.5389,"ARG_OF_PERICENTER":66.8225,"MEAN_ANOMALY":293.314,"EPHEMERIS_TYPE":0,"CLASSIFICATION_TYPE":"U","NORAD_CAT_ID":44061,"ELEMENT_SET_NO":999,"REV_AT_EPOCH":17018,"BSTAR":0.00019779,"MEAN_MOTION_DOT":8.7e-7,"MEAN_MOTION_DDOT":0},{"OBJECT_NAME":"ONEWEB-0011","OBJECT_ID":"2019-010F","EPOCH":"2022-09-07T18:35:03.315552","MEAN_MOTION":13.15546483,"ECCENTRICITY":0.0002307,"INCLINATION":87.9198,"RA_OF_ASC_NODE":173.5502,"ARG_OF_PERICENTER":81.7761,"MEAN_ANOMALY":278.363,"EPHEMERIS_TYPE":0,"CLASSIFICATION_TYPE":"U","NORAD_CAT_ID":44062,"ELEMENT_SET_NO":999,"REV_AT_EPOCH":17018,"BSTAR":0.00047148,"MEAN_MOTION_DOT":1.9e-6,"MEAN_MOTION_DDOT":0},{"OBJECT_NAME":"S5","OBJECT_ID":"2019-009D","EPOCH":"2022-09-06T20:11:44.684160","MEAN_MOTION":0.9934242,"ECCENTRICITY":0.0004323,"INCLINATION":3.023,"RA_OF_ASC_NODE":86.711,"ARG_OF_PERICENTER":55.672,"MEAN_ANOMALY":304.7354,"EPHEMERIS_TYPE":0,"CLASSIFICATION_TYPE":"U","NORAD_CAT_ID":44065,"ELEMENT_SET_NO":999,"REV_AT_EPOCH":1274,"BSTAR":0,"MEAN_MOTION_DOT":-2.8e-6,"MEAN_MOTION_DDOT":0},{"OBJECT_NAME":"CHINASAT 6C (ZX 6C)","OBJECT_ID":"2019-012A","EPOCH":"2022-09-08T01:42:42.808320","MEAN_MOTION":1.00270329,"ECCENTRICITY":0.0003553,"INCLINATION":0.0694,"RA_OF_ASC_NODE":271.4946,"ARG_OF_PERICENTER":341.8918,"MEAN_ANOMALY":249.4104,"EPHEMERIS_TYPE":0,"CLASSIFICATION_TYPE":"U","NORAD_CAT_ID":44067,"ELEMENT_SET_NO":999,"REV_AT_EPOCH":1291,"BSTAR":0,"MEAN_MOTION_DOT":-3.58e-6,"MEAN_MOTION_DDOT":0},{"OBJECT_NAME":"WGS 10 (USA 291)","OBJECT_ID":"2019-014A","EPOCH":"2022-09-07T18:58:35.251392","MEAN_MOTION":1.0027011,"ECCENTRICITY":2.62e-5,"INCLINATION":0.0167,"RA_OF_ASC_NODE":138.4094,"ARG_OF_PERICENTER":319.4966,"MEAN_ANOMALY":233.8575,"EPHEMERIS_TYPE":0,"CLASSIFICATION_TYPE":"U","NORAD_CAT_ID":44071,"ELEMENT_SET_NO":999,"REV_AT_EPOCH":1280,"BSTAR":0,"MEAN_MOTION_DOT":2.7e-7,"MEAN_MOTION_DDOT":0},{"OBJECT_NAME":"PRISMA","OBJECT_ID":"2019-015A","EPOCH":"2022-09-08T04:03:02.476224","MEAN_MOTION":14.83658805,"ECCENTRICITY":0.0001433,"INCLINATION":97.8683,"RA_OF_ASC_NODE":324.6975,"ARG_OF_PERICENTER":88.5647,"MEAN_ANOMALY":271.5734,"EPHEMERIS_TYPE":0,"CLASSIFICATION_TYPE":"U","NORAD_CAT_ID":44072,"ELEMENT_SET_NO":999,"REV_AT_EPOCH":18772,"BSTAR":8.566e-5,"MEAN_MOTION_DOT":6.54e-6,"MEAN_MOTION_DDOT":0},{"OBJECT_NAME":"TIANLIAN 2-01","OBJECT_ID":"2019-017A","EPOCH":"2022-09-07T21:35:42.718272","MEAN_MOTION":1.00270086,"ECCENTRICITY":0.0035229,"INCLINATION":0.218,"RA_OF_ASC_NODE":276.024,"ARG_OF_PERICENTER":238.2056,"MEAN_ANOMALY":236.6613,"EPHEMERIS_TYPE":0,"CLASSIFICATION_TYPE":"U","NORAD_CAT_ID":44076,"ELEMENT_SET_NO":999,"REV_AT_EPOCH":1279,"BSTAR":0,"MEAN_MOTION_DOT":-1.56e-6,"MEAN_MOTION_DDOT":0},{"OBJECT_NAME":"EMISAT","OBJECT_ID":"2019-018A","EPOCH":"2022-09-08T02:51:25.270272","MEAN_MOTION":14.43679861,"ECCENTRICITY":0.0019599,"INCLINATION":98.4311,"RA_OF_ASC_NODE":310.1723,"ARG_OF_PERICENTER":62.3429,"MEAN_ANOMALY":297.9762,"EPHEMERIS_TYPE":0,"CLASSIFICATION_TYPE":"U","NORAD_CAT_ID":44078,"ELEMENT_SET_NO":999,"REV_AT_EPOCH":18121,"BSTAR":3.993e-5,"MEAN_MOTION_DOT":9.2e-7,"MEAN_MOTION_DDOT":0},{"OBJECT_NAME":"FLOCK 4A-2","OBJECT_ID":"2019-018C","EPOCH":"2022-09-08T03:14:01.851360","MEAN_MOTION":15.3526953,"ECCENTRICITY":0.0010104,"INCLINATION":97.3026,"RA_OF_ASC_NODE":310.1839,"ARG_OF_PERICENTER":161.6621,"MEAN_ANOMALY":198.4988,"EPHEMERIS_TYPE":0,"CLASSIFICATION_TYPE":"U","NORAD_CAT_ID":44080,"ELEMENT_SET_NO":999,"REV_AT_EPOCH":19135,"BSTAR":0.00062418,"MEAN_MOTION_DOT":0.00021364,"MEAN_MOTION_DDOT":0},{"OBJECT_NAME":"ASTROCAST 0.2","OBJECT_ID":"2019-018F","EPOCH":"2022-09-08T02:24:09.120384","MEAN_MOTION":15.28215123,"ECCENTRICITY":0.0010056,"INCLINATION":97.3153,"RA_OF_ASC_NODE":308.4384,"ARG_OF_PERICENTER":183.6059,"MEAN_ANOMALY":176.511,"EPHEMERIS_TYPE":0,"CLASSIFICATION_TYPE":"U","NORAD_CAT_ID":44083,"ELEMENT_SET_NO":999,"REV_AT_EPOCH":19110,"BSTAR":0.00031418,"MEAN_MOTION_DOT":8.579e-5,"MEAN_MOTION_DDOT":0},{"OBJECT_NAME":"LEMUR-2-JOHANLORAN","OBJECT_ID":"2019-018G","EPOCH":"2022-09-08T03:49:14.100672","MEAN_MOTION":15.40184486,"ECCENTRICITY":0.0010444,"INCLINATION":97.308,"RA_OF_ASC_NODE":312.5673,"ARG_OF_PERICENTER":163.6989,"MEAN_ANOMALY":196.4595,"EPHEMERIS_TYPE":0,"CLASSIFICATION_TYPE":"U","NORAD_CAT_ID":44084,"ELEMENT_SET_NO":999,"REV_AT_EPOCH":19148,"BSTAR":0.00084333,"MEAN_MOTION_DOT":0.00033936,"MEAN_MOTION_DDOT":0},{"OBJECT_NAME":"LEMUR-2-BEAUDACIOUS","OBJECT_ID":"2019-018H","EPOCH":"2022-09-07T17:29:32.017920","MEAN_MOTION":15.34964505,"ECCENTRICITY":0.0010797,"INCLINATION":97.3069,"RA_OF_ASC_NODE":310.6531,"ARG_OF_PERICENTER":171.3852,"MEAN_ANOMALY":188.7579,"EPHEMERIS_TYPE":0,"CLASSIFICATION_TYPE":"U","NORAD_CAT_ID":44085,"ELEMENT_SET_NO":999,"REV_AT_EPOCH":19133,"BSTAR":0.00052281,"MEAN_MOTION_DOT":0.00017704,"MEAN_MOTION_DDOT":0},{"OBJECT_NAME":"LEMUR-2-ELHAM","OBJECT_ID":"2019-018J","EPOCH":"2022-09-07T18:24:51.582816","MEAN_MOTION":15.37514312,"ECCENTRICITY":0.001066,"INCLINATION":97.3102,"RA_OF_ASC_NODE":312.2129,"ARG_OF_PERICENTER":167.3754,"MEAN_ANOMALY":192.776,"EPHEMERIS_TYPE":0,"CLASSIFICATION_TYPE":"U","NORAD_CAT_ID":44086,"ELEMENT_SET_NO":999,"REV_AT_EPOCH":19141,"BSTAR":0.00064852,"MEAN_MOTION_DOT":0.00023872,"MEAN_MOTION_DDOT":0},{"OBJECT_NAME":"LEMUR-2-VICTOR-ANDREW","OBJECT_ID":"2019-018K","EPOCH":"2022-09-07T16:36:02.749536","MEAN_MOTION":15.40388662,"ECCENTRICITY":0.0010207,"INCLINATION":97.3109,"RA_OF_ASC_NODE":312.7918,"ARG_OF_PERICENTER":163.9033,"MEAN_ANOMALY":196.254,"EPHEMERIS_TYPE":0,"CLASSIFICATION_TYPE":"U","NORAD_CAT_ID":44087,"ELEMENT_SET_NO":999,"REV_AT_EPOCH":19145,"BSTAR":0.00078882,"MEAN_MOTION_DOT":0.0003194,"MEAN_MOTION_DDOT":0}]