ONEWEB-0010             
1 44058U 19010B   22250.76919988  .00000089  00000+0  19939-3 0  9990
2 44058  87.9132 143.1827 0002088  61.0549 299.0791 13.16596987170237
ONEWEB-0008             
1 44059U 19010C   22250.71848571 -.00000008  00000+0 -55625-4 0  9991
2 44059  87.9136 143.2313 0001935  88.9312 271.2041 13.16591313170349
ONEWEB-0007             
1 44060U 19010D   22250.72364832  .00000002  00000+0 -28683-4 0  9994
2 44060  87.9156 173.4354 0002445  75.7126 284.4276 13.15548708170139
ONEWEB-0006             
1 44061U 19010E   22250.71097442  .00000087  00000+0  19779-3 0  9991
2 44061  87.9192 173.5389 0002229  66.8225 293.3140 13.15549098170187
ONEWEB-0011             
1 44062U 19010F   22250.77434393  .00000190  00000+0  47148-3 0  9994
2 44062  87.9198 173.5502 0002307  81.7761 278.3630 13.15546483170181
S5                      
1 44065U 19009D   22249.84148940 -.00000280  00000+0  00000+0 0  9994
2 44065   3.0230  86.7110 0004323  55.6720 304.7354  0.99342420 12742
CHINASAT 6C (ZX 6C)     
1 44067U 19012A   22251.07132880 -.00000358  00000+0  00000+0 0  9990
2 44067   0.0694 271.4946 0003553 341.8918 249.4104  1.00270329 12916
WGS 10 (USA 291)        
1 44071U 19014A   22250.79068578  .00000027  00000+0  00000+0 0  9999
2 44071   0.0167 138.4094 0000262 319.4966 233.8575  1.00270110 12805
PRISMA                  
1 44072U 19015A   22251.16877866  .00000654  00000+0  85660-4 0  9997
2 44072  97.8683 324.6975 0001433  88.5647 271.5734 14.83658805187727
TIANLIAN 2-01           
1 44076U 19017A   22250.89979998 -.00000156  00000+0  00000+0 0  9999
2 44076   0.2180 276.0240 0035229 238.2056 236.6613  1.00270086 12792
EMISAT                  
1 44078U 19018A   22251.11904248  .00000092  00000+0  39930-4 0  9991
2 44078  98.4311 310.1723 0019599  62.3429 297.9762 14.43679861181211
FLOCK 4A-2              
1 44080U 19018C   22251.13474365  .00021364  00000+0  62418-3 0  9999
2 44080  97.3026 310.1839 0010104 161.6621 198.4988 15.35269530191354
ASTROCAST 0.2           
1 44083U 19018F   22251.10010556  .00008579  00000+0  31418-3 0  9996
2 44083  97.3153 308.4384 0010056 183.6059 176.5110 15.28215123191106
LEMUR-2-JOHANLORAN      
1 44084U 19018G   22251.15919098  .00033936  00000+0  84333-3 0  9990
2 44084  97.3080 312.5673 0010444 163.6989 196.4595 15.40184486191484
LEMUR-2-BEAUDACIOUS     
1 44085U 19018H   22250.72884280  .00017704  00000+0  52281-3 0  9999
2 44085  97.3069 310.6531 0010797 171.3852 188.7579 15.34964505191331
LEMUR-2-ELHAM           
1 44086U 19018J   22250.76726369  .00023872  00000+0  64852-3 0  9997
2 44086  97.3102 312.2129 0010660 167.3754 192.7760 15.37514312191412
LEMUR-2-VICTOR-ANDREW   
1 44087U 19018K   22250.69169849  .00031940  00000+0  78882-3 0  9997
2 44087  97.3109 312.7918 0010207 163.9033 196.2540 15.40388662191450
